GOES 14                 
1 35491U 09033A   26115.87683597 -.00000057  00000+0  00000+0 0  9996
2 35491   1.5570  83.6370 0001710 311.6603 305.3506  1.00116377  6068
EWS-G2 (GOES 15)        
1 36411U 10008A   26115.97829042  .00000010  00000+0  00000+0 0  9999
2 36411   1.1403  83.7997 0003885  23.5234 162.1051  1.00272391 59119
GOES 16                 
1 41866U 16071A   26115.90289280 -.00000104  00000+0  00000+0 0  9997
2 41866   0.2104  85.2605 0001541 248.4731 100.5078  1.00271074 34572
GOES 17                 
1 43226U 18022A   26115.86780985 -.00000195  00000+0  00000+0 0  9990
2 43226   0.8053  86.4106 0000672 269.3830  81.0047  1.00272049 29899
GOES 18                 
1 51850U 22021A   26115.68255981  .00000083  00000+0  00000+0 0  9994
2 51850   0.0124  93.6914 0000386 357.8405 230.8777  1.00271801  6065
GOES 19                 
1 60133U 24119A   26115.86780985 -.00000262  00000+0  00000+0 0  9995
2 60133   0.0279  93.9673 0000576 349.8122   7.3054  1.00270221  6434
